ONEWEB-0283             
1 49001U 21060AL  24145.57548639  .00000117  00000+0  27316-3 0  9996
2 49001  87.9128  18.8112 0001992  88.4364 271.6995 13.16595518140453
ONEWEB-0284             
1 49002U 21060AM  24145.56915317  .00000093  00000+0  20932-3 0  9997
2 49002  87.9120  18.7975 0002098  82.3141 277.8228 13.16595862140433
ONEWEB-0285             
1 49075U 21075A   24145.45684303  .00000036  00000+0  65174-4 0  9994
2 49075  87.8927 140.7316 0002095  88.3718 271.7651 13.12443010136346
ONEWEB-0286             
1 49076U 21075B   24145.50433867  .00000380  00000+0  10220-2 0  9990
2 49076  87.8923 140.7257 0001758  80.4946 279.6381 13.12446053135704
ONEWEB-0287             
1 49077U 21075C   24145.57664526  .00000042  00000+0  75489-4 0  9991
2 49077  87.9166 155.8645 0002050  76.8954 283.2406 13.17650364134386
ONEWEB-0288             
1 49078U 21075D   24145.48845407 -.00000416  00000+0 -11910-2 0  9995
2 49078  87.8920 140.7318 0002049  83.5425 276.5937 13.12443924136327
ONEWEB-0289             
1 49079U 21075E   24145.52918460  .00000072  00000+0  15124-3 0  9999
2 49079  87.9166 155.9009 0002131  94.5611 265.5764 13.17649383134952
ONEWEB-0290             
1 49080U 21075F   24145.58770921  .00000706  00000+0  17843-2 0  9998
2 49080  87.9165 155.8505 0002108  78.6717 281.4651 13.17656096134374
